HULIANWANG DIGUI 18H    
1 67442U 26007H   26020.50613640  .00000079  00000+0  17509-3 0  9993
2 67442  50.0092 267.0578 0007469 301.7918  58.2254 13.92386173   965
HULIANWANG DIGUI 18J    
1 67443U 26007J   26021.58179614  .00000160  00000+0  23714-3 0  9997
2 67443  50.0093 262.7516 0006058 303.7821  56.2502 13.92547027  1118
CZ-8A R/B               
1 67444U 26007K   26022.03047024  .00000075  00000+0  11707-3 0  9992
2 67444  50.0092 259.7857 0092172 111.8514 249.2228 14.13546154  1181
ALSAT-3A                
1 67474U 26009A   26022.10827030  .00010452  00000+0  43993-3 0  9990
2 67474  97.4709  96.8534 0011516 242.0473 117.9599 15.23501863  1069
CZ-2C R/B               
1 67475U 26009B   26022.26928358  .00006305  00000+0  42547-3 0  9999
2 67475  97.1805  96.2153 0099050 198.1562 161.6119 15.02951737  1075
TIANQI A                
1 67476U 26010A   26022.24734898  .00000441  00000+0  29877-3 0  9990
2 67476  44.9834  14.2856 0010687 337.3961  22.6406 14.14268672   915
TIANQI B                
1 67477U 26010B   26022.31730064  .00000454  00000+0  30440-3 0  9992
2 67477  44.9798  13.9581 0011192 340.3195  19.7210 14.14419321   921
TIANQI C                
1 67478U 26010C   26022.31683895  .00000460  00000+0  30706-3 0  9994
2 67478  44.9844  13.9568 0011117 344.3646  15.6848 14.14521322   928
TIANQI D                
1 67479U 26010D   26022.31677774  .00000458  00000+0  30588-3 0  9999
2 67479  44.9850  13.9566 0011862 340.6432  19.3955 14.14533698   922
TRANSPORTER-15DT        
1 67483U 25276DT  26020.68935949  .00004974  00000+0  42980-3 0  9992
2 67483  97.5436  96.4665 0010089 266.4894  93.5175 14.97612270   534
HULIANWANG DIGUI 19A    
1 67522U 26013A   26020.51319441 -.00000149  00000+0  00000+0 0  9995
2 67522  50.0132 180.3657 0011444 238.6074 121.3708 13.97939256   173
HULIANWANG DIGUI 19B    
1 67523U 26013B   26021.72840118 -.00000136  00000+0  93300-5 0  9997
2 67523  49.9994 175.4584 0015328 243.7764 116.1562 13.97588994   347
