CCSDS_OMM_VERS = 2.0
CREATION_DATE  = 
ORIGINATOR     = 

OBJECT_NAME    = HULIANWANG DIGUI 18H
OBJECT_ID      = 2026-007H
CENTER_NAME    = EARTH
REF_FRAME      = TEME
TIME_SYSTEM    = UTC
MEAN_ELEMENT_THEORY = SGP/SGP4

EPOCH          = 2026-01-20T12:08:50.184960
MEAN_MOTION    = 13.92386173
ECCENTRICITY   = .0007469
INCLINATION    = 50.0092
RA_OF_ASC_NODE = 267.0578
ARG_OF_PERICENTER = 301.7918
MEAN_ANOMALY   = 58.2254

EPHEMERIS_TYPE = 0
CLASSIFICATION_TYPE = U
NORAD_CAT_ID   = 67442
ELEMENT_SET_NO = 999
REV_AT_EPOCH   = 96
BSTAR          = .17509498E-3
MEAN_MOTION_DOT = .79E-6
MEAN_MOTION_DDOT = 0

CCSDS_OMM_VERS = 2.0
CREATION_DATE  = 
ORIGINATOR     = 

OBJECT_NAME    = HULIANWANG DIGUI 18J
OBJECT_ID      = 2026-007J
CENTER_NAME    = EARTH
REF_FRAME      = TEME
TIME_SYSTEM    = UTC
MEAN_ELEMENT_THEORY = SGP/SGP4

EPOCH          = 2026-01-21T13:57:47.186496
MEAN_MOTION    = 13.92547027
ECCENTRICITY   = .00060582
INCLINATION    = 50.0093
RA_OF_ASC_NODE = 262.7516
ARG_OF_PERICENTER = 303.7821
MEAN_ANOMALY   = 56.2502

EPHEMERIS_TYPE = 0
CLASSIFICATION_TYPE = U
NORAD_CAT_ID   = 67443
ELEMENT_SET_NO = 999
REV_AT_EPOCH   = 111
BSTAR          = .23714169E-3
MEAN_MOTION_DOT = .16E-5
MEAN_MOTION_DDOT = 0

CCSDS_OMM_VERS = 2.0
CREATION_DATE  = 
ORIGINATOR     = 

OBJECT_NAME    = CZ-8A R/B
OBJECT_ID      = 2026-007K
CENTER_NAME    = EARTH
REF_FRAME      = TEME
TIME_SYSTEM    = UTC
MEAN_ELEMENT_THEORY = SGP/SGP4

EPOCH          = 2026-01-22T00:43:52.628736
MEAN_MOTION    = 14.13546154
ECCENTRICITY   = .00921721
INCLINATION    = 50.0092
RA_OF_ASC_NODE = 259.7857
ARG_OF_PERICENTER = 111.8514
MEAN_ANOMALY   = 249.2228

EPHEMERIS_TYPE = 0
CLASSIFICATION_TYPE = U
NORAD_CAT_ID   = 67444
ELEMENT_SET_NO = 999
REV_AT_EPOCH   = 118
BSTAR          = .11706654E-3
MEAN_MOTION_DOT = .75E-6
MEAN_MOTION_DDOT = 0

CCSDS_OMM_VERS = 2.0
CREATION_DATE  = 
ORIGINATOR     = 

OBJECT_NAME    = ALSAT-3A
OBJECT_ID      = 2026-009A
CENTER_NAME    = EARTH
REF_FRAME      = TEME
TIME_SYSTEM    = UTC
MEAN_ELEMENT_THEORY = SGP/SGP4

EPOCH          = 2026-01-22T02:35:54.553920
MEAN_MOTION    = 15.23501863
ECCENTRICITY   = .00115167
INCLINATION    = 97.4709
RA_OF_ASC_NODE = 96.8534
ARG_OF_PERICENTER = 242.0473
MEAN_ANOMALY   = 117.9599

EPHEMERIS_TYPE = 0
CLASSIFICATION_TYPE = U
NORAD_CAT_ID   = 67474
ELEMENT_SET_NO = 999
REV_AT_EPOCH   = 106
BSTAR          = .43992934E-3
MEAN_MOTION_DOT = .10452E-3
MEAN_MOTION_DDOT = 0

CCSDS_OMM_VERS = 2.0
CREATION_DATE  = 
ORIGINATOR     = 

OBJECT_NAME    = CZ-2C R/B
OBJECT_ID      = 2026-009B
CENTER_NAME    = EARTH
REF_FRAME      = TEME
TIME_SYSTEM    = UTC
MEAN_ELEMENT_THEORY = SGP/SGP4

EPOCH          = 2026-01-22T06:27:46.101312
MEAN_MOTION    = 15.02951737
ECCENTRICITY   = .00990508
INCLINATION    = 97.1805
RA_OF_ASC_NODE = 96.2153
ARG_OF_PERICENTER = 198.1562
MEAN_ANOMALY   = 161.6119

EPHEMERIS_TYPE = 0
CLASSIFICATION_TYPE = U
NORAD_CAT_ID   = 67475
ELEMENT_SET_NO = 999
REV_AT_EPOCH   = 107
BSTAR          = .42547251E-3
MEAN_MOTION_DOT = .6305E-4
MEAN_MOTION_DDOT = 0

CCSDS_OMM_VERS = 2.0
CREATION_DATE  = 
ORIGINATOR     = 

OBJECT_NAME    = TIANQI A
OBJECT_ID      = 2026-010A
CENTER_NAME    = EARTH
REF_FRAME      = TEME
TIME_SYSTEM    = UTC
MEAN_ELEMENT_THEORY = SGP/SGP4

EPOCH          = 2026-01-22T05:56:10.951872
MEAN_MOTION    = 14.14268672
ECCENTRICITY   = .00106876
INCLINATION    = 44.9834
RA_OF_ASC_NODE = 14.2856
ARG_OF_PERICENTER = 337.3961
MEAN_ANOMALY   = 22.6406

EPHEMERIS_TYPE = 0
CLASSIFICATION_TYPE = U
NORAD_CAT_ID   = 67476
ELEMENT_SET_NO = 999
REV_AT_EPOCH   = 91
BSTAR          = .29877009E-3
MEAN_MOTION_DOT = .441E-5
MEAN_MOTION_DDOT = 0

CCSDS_OMM_VERS = 2.0
CREATION_DATE  = 
ORIGINATOR     = 

OBJECT_NAME    = TIANQI B
OBJECT_ID      = 2026-010B
CENTER_NAME    = EARTH
REF_FRAME      = TEME
TIME_SYSTEM    = UTC
MEAN_ELEMENT_THEORY = SGP/SGP4

EPOCH          = 2026-01-22T07:36:54.775296
MEAN_MOTION    = 14.14419321
ECCENTRICITY   = .00111928
INCLINATION    = 44.9798
RA_OF_ASC_NODE = 13.9581
ARG_OF_PERICENTER = 340.3195
MEAN_ANOMALY   = 19.7210

EPHEMERIS_TYPE = 0
CLASSIFICATION_TYPE = U
NORAD_CAT_ID   = 67477
ELEMENT_SET_NO = 999
REV_AT_EPOCH   = 92
BSTAR          = .30440456E-3
MEAN_MOTION_DOT = .454E-5
MEAN_MOTION_DDOT = 0

CCSDS_OMM_VERS = 2.0
CREATION_DATE  = 
ORIGINATOR     = 

OBJECT_NAME    = TIANQI C
OBJECT_ID      = 2026-010C
CENTER_NAME    = EARTH
REF_FRAME      = TEME
TIME_SYSTEM    = UTC
MEAN_ELEMENT_THEORY = SGP/SGP4

EPOCH          = 2026-01-22T07:36:14.885280
MEAN_MOTION    = 14.14521322
ECCENTRICITY   = .00111176
INCLINATION    = 44.9844
RA_OF_ASC_NODE = 13.9568
ARG_OF_PERICENTER = 344.3646
MEAN_ANOMALY   = 15.6848

EPHEMERIS_TYPE = 0
CLASSIFICATION_TYPE = U
NORAD_CAT_ID   = 67478
ELEMENT_SET_NO = 999
REV_AT_EPOCH   = 92
BSTAR          = .30706061E-3
MEAN_MOTION_DOT = .46E-5
MEAN_MOTION_DDOT = 0

CCSDS_OMM_VERS = 2.0
CREATION_DATE  = 
ORIGINATOR     = 

OBJECT_NAME    = TIANQI D
OBJECT_ID      = 2026-010D
CENTER_NAME    = EARTH
REF_FRAME      = TEME
TIME_SYSTEM    = UTC
MEAN_ELEMENT_THEORY = SGP/SGP4

EPOCH          = 2026-01-22T07:36:09.596736
MEAN_MOTION    = 14.14533698
ECCENTRICITY   = .00118626
INCLINATION    = 44.9850
RA_OF_ASC_NODE = 13.9566
ARG_OF_PERICENTER = 340.6432
MEAN_ANOMALY   = 19.3955

EPHEMERIS_TYPE = 0
CLASSIFICATION_TYPE = U
NORAD_CAT_ID   = 67479
ELEMENT_SET_NO = 999
REV_AT_EPOCH   = 92
BSTAR          = .30588073E-3
MEAN_MOTION_DOT = .458E-5
MEAN_MOTION_DDOT = 0

CCSDS_OMM_VERS = 2.0
CREATION_DATE  = 
ORIGINATOR     = 

OBJECT_NAME    = TRANSPORTER-15DT
OBJECT_ID      = 2025-276DT
CENTER_NAME    = EARTH
REF_FRAME      = TEME
TIME_SYSTEM    = UTC
MEAN_ELEMENT_THEORY = SGP/SGP4

EPOCH          = 2026-01-20T16:32:40.659936
MEAN_MOTION    = 14.97612270
ECCENTRICITY   = .00100894
INCLINATION    = 97.5436
RA_OF_ASC_NODE = 96.4665
ARG_OF_PERICENTER = 266.4894
MEAN_ANOMALY   = 93.5175

EPHEMERIS_TYPE = 0
CLASSIFICATION_TYPE = U
NORAD_CAT_ID   = 67483
ELEMENT_SET_NO = 999
REV_AT_EPOCH   = 53
BSTAR          = .42980489E-3
MEAN_MOTION_DOT = .4974E-4
MEAN_MOTION_DDOT = 0

CCSDS_OMM_VERS = 2.0
CREATION_DATE  = 
ORIGINATOR     = 

OBJECT_NAME    = HULIANWANG DIGUI 19A
OBJECT_ID      = 2026-013A
CENTER_NAME    = EARTH
REF_FRAME      = TEME
TIME_SYSTEM    = UTC
MEAN_ELEMENT_THEORY = SGP/SGP4

EPOCH          = 2026-01-20T12:18:59.997024
MEAN_MOTION    = 13.97939256
ECCENTRICITY   = .00114449
INCLINATION    = 50.0132
RA_OF_ASC_NODE = 180.3657
ARG_OF_PERICENTER = 238.6074
MEAN_ANOMALY   = 121.3708

EPHEMERIS_TYPE = 0
CLASSIFICATION_TYPE = U
NORAD_CAT_ID   = 67522
ELEMENT_SET_NO = 999
REV_AT_EPOCH   = 17
BSTAR          = 0
MEAN_MOTION_DOT = -.149E-5
MEAN_MOTION_DDOT = 0

CCSDS_OMM_VERS = 2.0
CREATION_DATE  = 
ORIGINATOR     = 

OBJECT_NAME    = HULIANWANG DIGUI 19B
OBJECT_ID      = 2026-013B
CENTER_NAME    = EARTH
REF_FRAME      = TEME
TIME_SYSTEM    = UTC
MEAN_ELEMENT_THEORY = SGP/SGP4

EPOCH          = 2026-01-21T17:28:53.861952
MEAN_MOTION    = 13.97588994
ECCENTRICITY   = .00153284
INCLINATION    = 49.9994
RA_OF_ASC_NODE = 175.4584
ARG_OF_PERICENTER = 243.7764
MEAN_ANOMALY   = 116.1562

EPHEMERIS_TYPE = 0
CLASSIFICATION_TYPE = U
NORAD_CAT_ID   = 67523
ELEMENT_SET_NO = 999
REV_AT_EPOCH   = 34
BSTAR          = .9329998E-5
MEAN_MOTION_DOT = -.136E-5
MEAN_MOTION_DDOT = 0

